{"type": "FeatureCollection", "features": [ {"type": "Feature", "properties": {"norad_id": 39586, "name": "COSMOS 2251 DEB", "group": "cosmos-2251-debris", "lat": 56.588023702127714, "lon": 19.654873217692703, "alt_km": 851.0932701778802, "timestamp": "2025-12-14T07:33:19.877648+00:00", "meta": {"OBJECT_NAME": "COSMOS 2251 DEB", "OBJECT_ID": "1993-036BUR", "EPOCH": "2025-12-11T10:34:49.908288", "MEAN_MOTION": 14.21221392, "ECCENTRICITY": 0.01007513, "INCLINATION": 74.009, "RA_OF_ASC_NODE": 230.5784, "ARG_OF_PERICENTER": 5.5344, "MEAN_ANOMALY": 174.6065, "EPHEMERIS_TYPE": 0, "CLASSIFICATION_TYPE": "U", "NORAD_CAT_ID": 39586, "ELEMENT_SET_NO": 999, "REV_AT_EPOCH": 60953, "BSTAR": 0.00065665467, "MEAN_MOTION_DOT": 1.479e-05, "MEAN_MOTION_DDOT": 0}, "tle": {"line1": "1 39586U 93036BUR 25345.44085542  .00001479  00000+0  65665-3 0  9994", "line2": "2 39586  74.0090 230.5784 0100751   5.5344 174.6065 14.21221392609536"}}, "geometry": {"type": "Point", "coordinates": [19.654873217692703, 56.588023702127714]}}, {"type": "Feature", "properties": {"norad_id": 39591, "name": "COSMOS 2251 DEB", "group": "cosmos-2251-debris", "lat": 52.64953076615031, "lon": 41.78982128704294, "alt_km": 759.8741034912337, "timestamp": "2025-12-14T07:33:19.877659+00:00", "meta": {"OBJECT_NAME": "COSMOS 2251 DEB", "OBJECT_ID": "1993-036BUW", "EPOCH": "2025-12-13T11:48:20.744928", "MEAN_MOTION": 14.4181589, "ECCENTRICITY": 0.00291007, "INCLINATION": 74.0205, "RA_OF_ASC_NODE": 245.3682, "ARG_OF_PERICENTER": 358.1732, "MEAN_ANOMALY": 176.1121, "EPHEMERIS_TYPE": 0, "CLASSIFICATION_TYPE": "U", "NORAD_CAT_ID": 39591, "ELEMENT_SET_NO": 999, "REV_AT_EPOCH": 61787, "BSTAR": 0.00047184087, "MEAN_MOTION_DOT": 1.523e-05, "MEAN_MOTION_DDOT": 0}, "tle": {"line1": "1 39591U 93036BUW 25347.49190677  .00001523  00000+0  47184-3 0  9999", "line2": "2 39591  74.0205 245.3682 0029100 358.1732 176.1121 14.41815890617877"}}, "geometry": {"type": "Point", "coordinates": [41.78982128704294, 52.64953076615031]}}, {"type": "Feature", "properties": {"norad_id": 40218, "name": "COSMOS 2251 DEB", "group": "cosmos-2251-debris", "lat": 15.794298258004504, "lon": -109.43740882667132, "alt_km": 745.862612005405, "timestamp": "2025-12-14T07:33:19.877670+00:00", "meta": {"OBJECT_NAME": "COSMOS 2251 DEB", "OBJECT_ID": "1993-036BUX", "EPOCH": "2025-12-02T02:20:48.132384", "MEAN_MOTION": 14.41546301, "ECCENTRICITY": 0.00163619, "INCLINATION": 74.0309, "RA_OF_ASC_NODE": 268.5457, "ARG_OF_PERICENTER": 353.795, "MEAN_ANOMALY": 6.3, "EPHEMERIS_TYPE": 0, "CLASSIFICATION_TYPE": "U", "NORAD_CAT_ID": 40218, "ELEMENT_SET_NO": 999, "REV_AT_EPOCH": 58708, "BSTAR": 0.00047133972, "MEAN_MOTION_DOT": 1.508e-05, "MEAN_MOTION_DDOT": 0}, "tle": {"line1": "1 40218U 93036BUX 25336.09777931  .00001508  00000+0  47134-3 0  9993", "line2": "2 40218  74.0309 268.5457 0016361 353.7950   6.3000 14.41546301587082"}}, "geometry": {"type": "Point", "coordinates": [-109.43740882667132, 15.794298258004504]}}, {"type": "Feature", "properties": {"norad_id": 40223, "name": "COSMOS 2251 DEB", "group": "cosmos-2251-debris", "lat": -21.30223300474787, "lon": 79.01601687255666, "alt_km": 553.3991010356931, "timestamp": "2025-12-14T07:33:19.877680+00:00", "meta": {"OBJECT_NAME": "COSMOS 2251 DEB", "OBJECT_ID": "1993-036BVC", "EPOCH": "2025-12-10T14:17:20.108832", "MEAN_MOTION": 15.03183139, "ECCENTRICITY": 0.0015245, "INCLINATION": 73.938, "RA_OF_ASC_NODE": 93.1094, "ARG_OF_PERICENTER": 294.1095, "MEAN_ANOMALY": 79.7132, "EPHEMERIS_TYPE": 0, "CLASSIFICATION_TYPE": "U", "NORAD_CAT_ID": 40223, "ELEMENT_SET_NO": 999, "REV_AT_EPOCH": 59342, "BSTAR": 0.0071622, "MEAN_MOTION_DOT": 0.00098423, "MEAN_MOTION_DDOT": 0}, "tle": {"line1": "1 40223U 93036BVC 25344.59537163  .00098423  00000+0  71622-2 0  9994", "line2": "2 40223  73.9380  93.1094 0015245 294.1095  79.7132 15.03183139593422"}}, "geometry": {"type": "Point", "coordinates": [79.01601687255666, -21.30223300474787]}}, {"type": "Feature", "properties": {"norad_id": 40228, "name": "COSMOS 2251 DEB", "group": "cosmos-2251-debris", "lat": -72.75430121629327, "lon": 144.6866772660055, "alt_km": 752.3739048800944, "timestamp": "2025-12-14T07:33:19.877690+00:00", "meta": {"OBJECT_NAME": "COSMOS 2251 DEB", "OBJECT_ID": "1993-036BVH", "EPOCH": "2025-12-11T12:30:37.061856", "MEAN_MOTION": 14.40990348, "ECCENTRICITY": 0.00239974, "INCLINATION": 74.0549, "RA_OF_ASC_NODE": 262.7798, "ARG_OF_PERICENTER": 324.5031, "MEAN_ANOMALY": 213.1591, "EPHEMERIS_TYPE": 0, "CLASSIFICATION_TYPE": "U", "NORAD_CAT_ID": 40228, "ELEMENT_SET_NO": 999, "REV_AT_EPOCH": 58903, "BSTAR": 0.00055464719, "MEAN_MOTION_DOT": 1.762e-05, "MEAN_MOTION_DDOT": 0}, "tle": {"line1": "1 40228U 93036BVH 25345.52126229  .00001762  00000+0  55465-3 0  9998", "line2": "2 40228  74.0549 262.7798 0023997 324.5031 213.1591 14.40990348589035"}}, "geometry": {"type": "Point", "coordinates": [144.6866772660055, -72.75430121629327]}}, {"type": "Feature", "properties": {"norad_id": 40230, "name": "COSMOS 2251 DEB", "group": "cosmos-2251-debris", "lat": 61.64027637690656, "lon": 11.94005833201842, "alt_km": 734.6239100495231, "timestamp": "2025-12-14T07:33:19.877700+00:00", "meta": {"OBJECT_NAME": "COSMOS 2251 DEB", "OBJECT_ID": "1993-036BVK", "EPOCH": "2025-12-05T11:49:12.794880", "MEAN_MOTION": 14.49259606, "ECCENTRICITY": 0.00191133, "INCLINATION": 74.0458, "RA_OF_ASC_NODE": 240.4744, "ARG_OF_PERICENTER": 299.5216, "MEAN_ANOMALY": 242.5097, "EPHEMERIS_TYPE": 0, "CLASSIFICATION_TYPE": "U", "NORAD_CAT_ID": 40230, "ELEMENT_SET_NO": 999, "REV_AT_EPOCH": 58866, "BSTAR": 0.0014637297, "MEAN_MOTION_DOT": 5.571e-05, "MEAN_MOTION_DDOT": 0}, "tle": {"line1": "1 40230U 93036BVK 25339.49250920  .00005571  00000+0  14637-2 0  9993", "line2": "2 40230  74.0458 240.4744 0019113 299.5216 242.5097 14.49259606588661"}}, "geometry": {"type": "Point", "coordinates": [11.94005833201842, 61.64027637690656]}}, {"type": "Feature", "properties": {"norad_id": 40233, "name": "COSMOS 2251 DEB", "group": "cosmos-2251-debris", "lat": -10.931878834047094, "lon": 96.90198829888702, "alt_km": 733.9582019732288, "timestamp": "2025-12-14T07:33:19.877710+00:00", "meta": {"OBJECT_NAME": "COSMOS 2251 DEB", "OBJECT_ID": "1993-036BVN", "EPOCH": "2025-12-12T17:44:37.201344", "MEAN_MOTION": 14.58419195, "ECCENTRICITY": 0.00452349, "INCLINATION": 73.9396, "RA_OF_ASC_NODE": 103.1069, "ARG_OF_PERICENTER": 178.0114, "MEAN_ANOMALY": 182.1239, "EPHEMERIS_TYPE": 0, "CLASSIFICATION_TYPE": "U", "NORAD_CAT_ID": 40233, "ELEMENT_SET_NO": 999, "REV_AT_EPOCH": 59137, "BSTAR": 0.0020636602, "MEAN_MOTION_DOT": 9.688e-05, "MEAN_MOTION_DDOT": 0}, "tle": {"line1": "1 40233U 93036BVN 25346.73931946  .00009688  00000+0  20637-2 0  9995", "line2": "2 40233  73.9396 103.1069 0045234 178.0114 182.1239 14.58419195591379"}}, "geometry": {"type": "Point", "coordinates": [96.90198829888702, -10.931878834047094]}}, {"type": "Feature", "properties": {"norad_id": 40236, "name": "COSMOS 2251 DEB", "group": "cosmos-2251-debris", "lat": 1.2446440347756789, "lon": 141.64198433979467, "alt_km": 786.370354184256, "timestamp": "2025-12-14T07:33:19.877720+00:00", "meta": {"OBJECT_NAME": "COSMOS 2251 DEB", "OBJECT_ID": "1993-036BVR", "EPOCH": "2025-12-07T17:52:23.026080", "MEAN_MOTION": 13.24639967, "ECCENTRICITY": 0.05366128, "INCLINATION": 73.5349, "RA_OF_ASC_NODE": 151.6266, "ARG_OF_PERICENTER": 32.3576, "MEAN_ANOMALY": 330.9258, "EPHEMERIS_TYPE": 0, "CLASSIFICATION_TYPE": "U", "NORAD_CAT_ID": 40236, "ELEMENT_SET_NO": 999, "REV_AT_EPOCH": 53558, "BSTAR": 0.0015786255, "MEAN_MOTION_DOT": 1.455e-05, "MEAN_MOTION_DDOT": 0}, "tle": {"line1": "1 40236U 93036BVR 25341.74471095  .00001455  00000+0  15786-2 0  9991", "line2": "2 40236  73.5349 151.6266 0536612  32.3576 330.9258 13.24639967535580"}}, "geometry": {"type": "Point", "coordinates": [141.64198433979467, 1.2446440347756789]}}, {"type": "Feature", "properties": {"norad_id": 40238, "name": "COSMOS 2251 DEB", "group": "cosmos-2251-debris", "lat": 66.71276847937011, "lon": -160.6654769034273, "alt_km": 1025.507731815269, "timestamp": "2025-12-14T07:33:19.877730+00:00", "meta": {"OBJECT_NAME": "COSMOS 2251 DEB", "OBJECT_ID": "1993-036BVT", "EPOCH": "2025-12-09T21:58:52.795776", "MEAN_MOTION": 13.25105207, "ECCENTRICITY": 0.05495016, "INCLINATION": 73.9881, "RA_OF_ASC_NODE": 67.934, "ARG_OF_PERICENTER": 40.3773, "MEAN_ANOMALY": 323.6787, "EPHEMERIS_TYPE": 0, "CLASSIFICATION_TYPE": "U", "NORAD_CAT_ID": 40238, "ELEMENT_SET_NO": 999, "REV_AT_EPOCH": 53999, "BSTAR": 0.0016484938, "MEAN_MOTION_DOT": 1.598e-05, "MEAN_MOTION_DDOT": 0}, "tle": {"line1": "1 40238U 93036BVT 25343.91588884  .00001598  00000+0  16485-2 0  9994", "line2": "2 40238  73.9881  67.9340 0549501  40.3773 323.6787 13.25105207539999"}}, "geometry": {"type": "Point", "coordinates": [-160.6654769034273, 66.71276847937011]}}, {"type": "Feature", "properties": {"norad_id": 40239, "name": "COSMOS 2251 DEB", "group": "cosmos-2251-debris", "lat": -34.505194375558624, "lon": -98.53039948343071, "alt_km": 662.0857626027719, "timestamp": "2025-12-14T07:33:19.877740+00:00", "meta": {"OBJECT_NAME": "COSMOS 2251 DEB", "OBJECT_ID": "1993-036BVU", "EPOCH": "2025-12-10T14:12:54.993024", "MEAN_MOTION": 14.6197936, "ECCENTRICITY": 0.0084758, "INCLINATION": 74.0316, "RA_OF_ASC_NODE": 279.9471, "ARG_OF_PERICENTER": 31.8637, "MEAN_ANOMALY": 148.8031, "EPHEMERIS_TYPE": 0, "CLASSIFICATION_TYPE": "U", "NORAD_CAT_ID": 40239, "ELEMENT_SET_NO": 999, "REV_AT_EPOCH": 59579, "BSTAR": 0.00074089, "MEAN_MOTION_DOT": 3.879e-05, "MEAN_MOTION_DDOT": 0}, "tle": {"line1": "1 40239U 93036BVU 25344.59230316  .00003879  00000+0  74089-3 0  9993", "line2": "2 40239  74.0316 279.9471 0084758  31.8637 148.8031 14.61979360595796"}}, "geometry": {"type": "Point", "coordinates": [-98.53039948343071, -34.505194375558624]}}]}